ASTROCAST-0401          
1 55110U 23001DF  26068.71172895  .00009750  00000+0  37868-3 0  9995
2 55110  97.5547 160.5206 0008142 188.4231 171.6872 15.26258462176022
STARLINK-36478          
1 67351U 26003T   26068.46712717  .00026407  00000+0  96567-3 0  9994
2 67351  42.9982 227.9872 0001215 264.7832  95.2881 15.27580731  8792
