[{"OBJECT_NAME":"ASTROCAST-0401","OBJECT_ID":"2023-001DF","EPOCH":"2026-03-09T17:04:53.382144","MEAN_MOTION":15.26258462,"ECCENTRICITY":0.00081423,"INCLINATION":97.5547,"RA_OF_ASC_NODE":160.5206,"ARG_OF_PERICENTER":188.4231,"MEAN_ANOMALY":171.6872,"EPHEMERIS_TYPE":0,"CLASSIFICATION_TYPE":"U","NORAD_CAT_ID":55110,"ELEMENT_SET_NO":999,"REV_AT_EPOCH":17602,"BSTAR":0.00037868349,"MEAN_MOTION_DOT":9.75e-5,"MEAN_MOTION_DDOT":0},{"OBJECT_NAME":"STARLINK-36478","OBJECT_ID":"2026-003T","EPOCH":"2026-03-09T11:12:39.787488","MEAN_MOTION":15.27580731,"ECCENTRICITY":0.00012155,"INCLINATION":42.9982,"RA_OF_ASC_NODE":227.9872,"ARG_OF_PERICENTER":264.7832,"MEAN_ANOMALY":95.2881,"EPHEMERIS_TYPE":0,"CLASSIFICATION_TYPE":"U","NORAD_CAT_ID":67351,"ELEMENT_SET_NO":999,"REV_AT_EPOCH":879,"BSTAR":0.00096566918,"MEAN_MOTION_DOT":0.00026407,"MEAN_MOTION_DDOT":0}]
